{"type": "FeatureCollection", "features": [ {"type": "Feature", "properties": {"norad_id": 66990, "name": "TJS-22", "group": "last-30-days", "lat": -0.7557930970239548, "lon": -97.16712717327957, "alt_km": 35771.90801412808, "timestamp": "2025-12-27T06:41:29.621638+00:00", "meta": {"OBJECT_NAME": "TJS-22", "OBJECT_ID": "2025-290A", "EPOCH": "2025-12-26T08:16:11.750016", "MEAN_MOTION": 1.00271731, "ECCENTRICITY": 0.00033821, "INCLINATION": 1.9542, "RA_OF_ASC_NODE": 285.0406, "ARG_OF_PERICENTER": 343.2967, "MEAN_ANOMALY": 17.2528, "EPHEMERIS_TYPE": 0, "CLASSIFICATION_TYPE": "U", "NORAD_CAT_ID": 66990, "ELEMENT_SET_NO": 999, "REV_AT_EPOCH": 29, "BSTAR": 0, "MEAN_MOTION_DOT": 1.6e-07, "MEAN_MOTION_DDOT": 0}, "tle": {"line1": "1 66990U 25290A   25360.34458044  .00000016  00000+0  00000+0 0  9991", "line2": "2 66990   1.9542 285.0406 0003382 343.2967  17.2528  1.00271731   296"}}, "geometry": {"type": "Point", "coordinates": [-97.16712717327957, -0.7557930970239548]}}, {"type": "Feature", "properties": {"norad_id": 66991, "name": "CZ-3B R/B", "group": "last-30-days", "lat": -20.75319629354765, "lon": -108.4913707159396, "alt_km": 11821.487360625859, "timestamp": "2025-12-27T06:41:29.621651+00:00", "meta": {"OBJECT_NAME": "CZ-3B R/B", "OBJECT_ID": "2025-290B", "EPOCH": "2025-12-15T17:23:33.043200", "MEAN_MOTION": 2.38388611, "ECCENTRICITY": 0.7240884, "INCLINATION": 28.4636, "RA_OF_ASC_NODE": 300.4666, "ARG_OF_PERICENTER": 182.7002, "MEAN_ANOMALY": 168.625, "EPHEMERIS_TYPE": 0, "CLASSIFICATION_TYPE": "U", "NORAD_CAT_ID": 66991, "ELEMENT_SET_NO": 999, "REV_AT_EPOCH": 16, "BSTAR": 0.00075879, "MEAN_MOTION_DOT": 0.00057911, "MEAN_MOTION_DDOT": -2.0514e-07}, "tle": {"line1": "1 66991U 25290B   25349.72468800  .00057911 -20514-6  75879-3 0  9998", "line2": "2 66991  28.4636 300.4666 7240884 182.7002 168.6250  2.38388611   165"}}, "geometry": {"type": "Point", "coordinates": [-108.4913707159396, -20.75319629354765]}}, {"type": "Feature", "properties": {"norad_id": 66993, "name": "2025-292A", "group": "last-30-days", "lat": -35.72861293724921, "lon": -111.8604702468535, "alt_km": 548.860531940094, "timestamp": "2025-12-27T06:41:29.621661+00:00", "meta": {"OBJECT_NAME": "2025-292A", "OBJECT_ID": "2025-292A", "EPOCH": "2025-12-26T21:45:12.235968", "MEAN_MOTION": 15.04603604, "ECCENTRICITY": 0.00147598, "INCLINATION": 97.6491, "RA_OF_ASC_NODE": 73.3185, "ARG_OF_PERICENTER": 221.6863, "MEAN_ANOMALY": 138.3239, "EPHEMERIS_TYPE": 0, "CLASSIFICATION_TYPE": "U", "NORAD_CAT_ID": 66993, "ELEMENT_SET_NO": 999, "REV_AT_EPOCH": 252, "BSTAR": 0.00037248811, "MEAN_MOTION_DOT": 5.181e-05, "MEAN_MOTION_DDOT": 0}, "tle": {"line1": "1 66993U 25292A   25360.90639162  .00005181  00000+0  37249-3 0  9997", "line2": "2 66993  97.6491  73.3185 0014759 221.6863 138.3239 15.04603604  2529"}}, "geometry": {"type": "Point", "coordinates": [-111.8604702468535, -35.72861293724921]}}, {"type": "Feature", "properties": {"norad_id": 66994, "name": "2025-292B", "group": "last-30-days", "lat": -38.48356190236714, "lon": -112.44387043024999, "alt_km": 548.962290138551, "timestamp": "2025-12-27T06:41:29.621671+00:00", "meta": {"OBJECT_NAME": "2025-292B", "OBJECT_ID": "2025-292B", "EPOCH": "2025-12-26T21:44:28.806144", "MEAN_MOTION": 15.04654531, "ECCENTRICITY": 0.0014552, "INCLINATION": 97.6501, "RA_OF_ASC_NODE": 73.3208, "ARG_OF_PERICENTER": 222.0345, "MEAN_ANOMALY": 137.9766, "EPHEMERIS_TYPE": 0, "CLASSIFICATION_TYPE": "U", "NORAD_CAT_ID": 66994, "ELEMENT_SET_NO": 999, "REV_AT_EPOCH": 252, "BSTAR": 0.000415079, "MEAN_MOTION_DOT": 5.788e-05, "MEAN_MOTION_DDOT": 0}, "tle": {"line1": "1 66994U 25292B   25360.90588896  .00005788  00000+0  41508-3 0  9991", "line2": "2 66994  97.6501  73.3208 0014552 222.0345 137.9766 15.04654531  2524"}}, "geometry": {"type": "Point", "coordinates": [-112.44387043024999, -38.48356190236714]}}, {"type": "Feature", "properties": {"norad_id": 66995, "name": "2025-292C", "group": "last-30-days", "lat": -39.70310876547717, "lon": -112.71847100579896, "alt_km": 548.8201627364051, "timestamp": "2025-12-27T06:41:29.621683+00:00", "meta": {"OBJECT_NAME": "2025-292C", "OBJECT_ID": "2025-292C", "EPOCH": "2025-12-25T05:50:07.257120", "MEAN_MOTION": 15.04668363, "ECCENTRICITY": 0.0014688, "INCLINATION": 97.6495, "RA_OF_ASC_NODE": 71.6733, "ARG_OF_PERICENTER": 227.9665, "MEAN_ANOMALY": 132.0312, "EPHEMERIS_TYPE": 0, "CLASSIFICATION_TYPE": "U", "NORAD_CAT_ID": 66995, "ELEMENT_SET_NO": 999, "REV_AT_EPOCH": 227, "BSTAR": 0.00041226, "MEAN_MOTION_DOT": 5.751e-05, "MEAN_MOTION_DDOT": 0}, "tle": {"line1": "1 66995U 25292C   25359.24313955  .00005751  00000+0  41226-3 0  9996", "line2": "2 66995  97.6495  71.6733 0014688 227.9665 132.0312 15.04668363  2273"}}, "geometry": {"type": "Point", "coordinates": [-112.71847100579896, -39.70310876547717]}}, {"type": "Feature", "properties": {"norad_id": 66996, "name": "2025-292D", "group": "last-30-days", "lat": -41.673139995642245, "lon": -113.18198787595247, "alt_km": 549.5200546992273, "timestamp": "2025-12-27T06:41:29.621693+00:00", "meta": {"OBJECT_NAME": "2025-292D", "OBJECT_ID": "2025-292D", "EPOCH": "2025-12-25T05:49:36.025248", "MEAN_MOTION": 15.04678565, "ECCENTRICITY": 0.0013797, "INCLINATION": 97.6491, "RA_OF_ASC_NODE": 71.6729, "ARG_OF_PERICENTER": 230.5158, "MEAN_ANOMALY": 129.4848, "EPHEMERIS_TYPE": 0, "CLASSIFICATION_TYPE": "U", "NORAD_CAT_ID": 66996, "ELEMENT_SET_NO": 999, "REV_AT_EPOCH": 227, "BSTAR": 0.00027339, "MEAN_MOTION_DOT": 3.792e-05, "MEAN_MOTION_DDOT": 0}, "tle": {"line1": "1 66996U 25292D   25359.24277807  .00003792  00000+0  27339-3 0  9994", "line2": "2 66996  97.6491  71.6729 0013797 230.5158 129.4848 15.04678565  2271"}}, "geometry": {"type": "Point", "coordinates": [-113.18198787595247, -41.673139995642245]}}, {"type": "Feature", "properties": {"norad_id": 66997, "name": "2025-292E", "group": "last-30-days", "lat": -46.79554268826946, "lon": -114.53361179884071, "alt_km": 549.0409663370119, "timestamp": "2025-12-27T06:41:29.621703+00:00", "meta": {"OBJECT_NAME": "2025-292E", "OBJECT_ID": "2025-292E", "EPOCH": "2025-12-26T21:42:16.672032", "MEAN_MOTION": 15.04787706, "ECCENTRICITY": 0.00143499, "INCLINATION": 97.6508, "RA_OF_ASC_NODE": 73.3242, "ARG_OF_PERICENTER": 225.8769, "MEAN_ANOMALY": 134.1278, "EPHEMERIS_TYPE": 0, "CLASSIFICATION_TYPE": "U", "NORAD_CAT_ID": 66997, "ELEMENT_SET_NO": 999, "REV_AT_EPOCH": 251, "BSTAR": 0.00039825711, "MEAN_MOTION_DOT": 5.57e-05, "MEAN_MOTION_DDOT": 0}, "tle": {"line1": "1 66997U 25292E   25360.90435963  .00005570  00000+0  39826-3 0  9999", "line2": "2 66997  97.6508  73.3242 0014349 225.8769 134.1278 15.04787706  2514"}}, "geometry": {"type": "Point", "coordinates": [-114.53361179884071, -46.79554268826946]}}, {"type": "Feature", "properties": {"norad_id": 66998, "name": "2025-292F", "group": "last-30-days", "lat": -56.77834961259652, "lon": -118.14410342270281, "alt_km": 548.1741680345222, "timestamp": "2025-12-27T06:41:29.621713+00:00", "meta": {"OBJECT_NAME": "2025-292F", "OBJECT_ID": "2025-292F", "EPOCH": "2025-12-26T21:39:37.537056", "MEAN_MOTION": 15.04975707, "ECCENTRICITY": 0.0015477, "INCLINATION": 97.6528, "RA_OF_ASC_NODE": 73.3304, "ARG_OF_PERICENTER": 226.7484, "MEAN_ANOMALY": 133.2452, "EPHEMERIS_TYPE": 0, "CLASSIFICATION_TYPE": "U", "NORAD_CAT_ID": 66998, "ELEMENT_SET_NO": 999, "REV_AT_EPOCH": 252, "BSTAR": 0.00052050341, "MEAN_MOTION_DOT": 7.341e-05, "MEAN_MOTION_DDOT": 0}, "tle": {"line1": "1 66998U 25292F   25360.90251779  .00007341  00000+0  52050-3 0  9993", "line2": "2 66998  97.6528  73.3304 0015477 226.7484 133.2452 15.04975707  2528"}}, "geometry": {"type": "Point", "coordinates": [-118.14410342270281, -56.77834961259652]}}, {"type": "Feature", "properties": {"norad_id": 66999, "name": "2025-292G", "group": "last-30-days", "lat": -60.5576485663733, "lon": -120.076168917849, "alt_km": 548.4653395637688, "timestamp": "2025-12-27T06:41:29.621725+00:00", "meta": {"OBJECT_NAME": "2025-292G", "OBJECT_ID": "2025-292G", "EPOCH": "2025-12-26T21:38:36.486816", "MEAN_MOTION": 15.05040351, "ECCENTRICITY": 0.00149775, "INCLINATION": 97.6538, "RA_OF_ASC_NODE": 73.3332, "ARG_OF_PERICENTER": 228.7164, "MEAN_ANOMALY": 131.2774, "EPHEMERIS_TYPE": 0, "CLASSIFICATION_TYPE": "U", "NORAD_CAT_ID": 66999, "ELEMENT_SET_NO": 999, "REV_AT_EPOCH": 252, "BSTAR": 0.00051892243, "MEAN_MOTION_DOT": 7.33e-05, "MEAN_MOTION_DDOT": 0}, "tle": {"line1": "1 66999U 25292G   25360.90181119  .00007330  00000+0  51892-3 0  9995", "line2": "2 66999  97.6538  73.3332 0014977 228.7164 131.2774 15.05040351  2526"}}, "geometry": {"type": "Point", "coordinates": [-120.076168917849, -60.5576485663733]}}, {"type": "Feature", "properties": {"norad_id": 67000, "name": "2025-292H", "group": "last-30-days", "lat": -61.41315365834944, "lon": -120.57981186169745, "alt_km": 548.4481997450339, "timestamp": "2025-12-27T06:41:29.621735+00:00", "meta": {"OBJECT_NAME": "2025-292H", "OBJECT_ID": "2025-292H", "EPOCH": "2025-12-26T21:38:23.105184", "MEAN_MOTION": 15.05076214, "ECCENTRICITY": 0.00149274, "INCLINATION": 97.6551, "RA_OF_ASC_NODE": 73.336, "ARG_OF_PERICENTER": 228.5267, "MEAN_ANOMALY": 131.4679, "EPHEMERIS_TYPE": 0, "CLASSIFICATION_TYPE": "U", "NORAD_CAT_ID": 67000, "ELEMENT_SET_NO": 999, "REV_AT_EPOCH": 239, "BSTAR": 0.00062859818, "MEAN_MOTION_DOT": 8.903e-05, "MEAN_MOTION_DDOT": 0}, "tle": {"line1": "1 67000U 25292H   25360.90165631  .00008903  00000+0  62860-3 0  9994", "line2": "2 67000  97.6551  73.3360 0014927 228.5267 131.4679 15.05076214  2391"}}, "geometry": {"type": "Point", "coordinates": [-120.57981186169745, -61.41315365834944]}}]}